[{"OBJECT_NAME":"STARLINK-1526","OBJECT_ID":"2020-055C","EPOCH":"2026-03-10T00:00:02.999808","MEAN_MOTION":15.19094638,"ECCENTRICITY":8.938e-5,"INCLINATION":53.1067,"RA_OF_ASC_NODE":124.7929,"ARG_OF_PERICENTER":56.7447,"MEAN_ANOMALY":353.5398,"EPHEMERIS_TYPE":0,"CLASSIFICATION_TYPE":"U","NORAD_CAT_ID":46029,"ELEMENT_SET_NO":999,"REV_AT_EPOCH":569,"BSTAR":0.0056326704,"MEAN_MOTION_DOT":0.00121352,"MEAN_MOTION_DDOT":0},{"OBJECT_NAME":"DROID.002","OBJECT_ID":"2025-052P","EPOCH":"2026-03-09T23:25:00.743520","MEAN_MOTION":15.22033904,"ECCENTRICITY":0.00055943,"INCLINATION":97.4049,"RA_OF_ASC_NODE":323.345,"ARG_OF_PERICENTER":112.4531,"MEAN_ANOMALY":247.7298,"EPHEMERIS_TYPE":0,"CLASSIFICATION_TYPE":"U","NORAD_CAT_ID":63223,"ELEMENT_SET_NO":999,"REV_AT_EPOCH":5477,"BSTAR":0.00036874909,"MEAN_MOTION_DOT":8.365e-5,"MEAN_MOTION_DDOT":0}]
